ONEWEB-0645             
1 55809U 23029P   25012.60727989  .00000015  00000+0  60372-5 0  9999
2 55809  87.9153  48.4863 0001503  98.6338 261.4965 13.19725971 90930
ONEWEB-0646             
1 55810U 23029Q   25012.78892032  .00000098  00000+0  21271-3 0  9996
2 55810  87.9152  48.4461 0001832 105.5493 254.5842 13.19727415 90943
ONEWEB-0648             
1 55811U 23029R   25012.54284210 -.00000186  00000+0 -53657-3 0  9997
2 55811  87.8988  33.2318 0001351 127.9550 232.1701 13.14500647 90993
ONEWEB-0649             
1 55812U 23029S   25012.60016737  .00000096  00000+0  20644-3 0  9990
2 55812  87.9151  48.4756 0001551 111.8744 248.2554 13.19726592 90954
ONEWEB-0650             
1 55813U 23029T   25012.59543360  .00000099  00000+0  21609-3 0  9991
2 55813  87.9151  48.4827 0001788 103.2236 256.9096 13.19726209 90230
ONEWEB-0652             
1 55814U 23029U   25012.59994503 -.00000005  00000+0 -48344-4 0  9996
2 55814  87.8989  33.2316 0001896  88.2418 271.8929 13.14502015 91669
ONEWEB-0653             
1 55815U 23029V   25012.58408900  .00000141  00000+0  34603-3 0  9998
2 55815  87.8992  33.2200 0001710  85.9962 274.1363 13.14501227 91694
ONEWEB-0654             
1 55816U 23029W   25012.57932583  .00000027  00000+0  38026-4 0  9994
2 55816  87.8987  33.2254 0001963  78.8956 281.2395 13.14502000 91023
